TITAN 4B R/B            
1 26474U 00047B   22242.47390473  .00000629  00000+0  63722-4 0  9993
2 26474  67.9944  21.4226 0052498  28.8667 331.5362 14.97018651199527
ENVISAT                 
1 27386U 02009A   22242.49151167  .00000056  00000+0  31884-4 0  9991
2 27386  98.1902 220.1499 0001323  83.5383  26.0511 14.38148090 74108
IDEFIX & ARIANE 42P R/B 
1 27422U 02021B   22242.43511839  .00000078  00000+0  47266-4 0  9991
2 27422  98.4529 186.2259 0012791  23.9766 336.2010 14.29440641 60020
AQUA                    
1 27424U 02022A   22242.51317352  .00000296  00000+0  75336-4 0  9998
2 27424  98.2501 183.7156 0001696  59.3361  30.8359 14.57365159 81010
CZ-4B R/B               
1 27432U 02024C   22242.31567020 -.00000015  00000+0  16061-4 0  9996
2 27432  99.0590 268.4580 0051330  68.7376 303.2104 14.14149624 47262
MIDORI II (ADEOS-II)    
1 27597U 02056A   22242.41584021  .00000092  00000+0  55010-4 0  9995
2 27597  98.6099 185.1921 0001720 114.8905 245.2455 14.27637984 26521
H-2A R/B                
1 27601U 02056E   22242.49325080  .00000147  00000+0  67718-4 0  9996
2 27601  98.1790 244.9330 0072889  41.2634 111.3255 14.32099677 29772
CZ-4B R/B               
1 28059U 03049C   22242.41270984  .00000074  00000+0  29458-4 0  9999
2 28059  98.5218 180.3903 0049434 200.1365 159.7881 14.52819662999554
CZ-2C R/B               
1 28222U 04012C   22242.49616168  .00001879  00000+0  10788-3 0  9997
2 28222  97.7781 224.7531 0045193 156.7879 319.3418 15.12999486  7433
SL-16 R/B               
1 28353U 04021B   22242.47787022 -.00000316  00000+0 -14049-3 0  9999
2 28353  70.9989  53.0225 0006090 217.3521 142.7178 14.14276314940813
CZ-4B R/B               
1 28415U 04035C   22242.09617411  .00001982  00000+0  12788-3 0  9991
2 28415  97.5109 280.9475 0051202 126.5540 234.0418 15.08353824984698
CZ-2C R/B               
1 28480U 04046B   22242.43549729  .00000073  00000+0  42867-4 0  9991
2 28480  98.0707 224.3728 0141831   3.6251 356.5924 14.25850328924982
ARIANE 5 R/B            
1 28499U 04049H   22242.34594920  .00000381  00000+0  53777-4 0  9991
2 28499  98.1046 359.7897 0091088 194.9939 229.2766 14.80486966955016
CZ-2D R/B               
1 28738U 05024B   22242.49580052  .00001785  00000+0  10119-3 0  9999
2 28738  97.3532 248.0837 0009485 283.4813  76.5362 15.14203169942956
SUZAKU (ASTRO-EII)      
1 28773U 05025A   22242.50964805  .00004030  00000+0  16930-3 0  9996
2 28773  31.3791 177.5138 0003759  31.2719 328.8153 15.21727738946318
ALOS (DAICHI)           
1 28931U 06002A   22242.43597000  .00000232  00000+0  53755-4 0  9996
2 28931  97.9417 204.5529 0002447  67.6089 292.5368 14.63266303885248
H-2A R/B                
1 28932U 06002B   22242.41910699  .00001356  00000+0  12543-3 0  9995
2 28932  98.2858 288.9339 0085606 208.4708 151.1821 14.93750356901082
AKARI (ASTRO-F)         
1 28939U 06005A   22242.47683330  .00019079  00000+0  32220-3 0  9995
2 28939  98.1905 325.6006 0064557  12.3727 347.9088 15.49300462904530
CZ-4B R/B               
1 29093U 06015B   22242.16758900  .00019839  00000+0  21856-3 0  9997
2 29093  97.5893 106.9417 0033777 270.2654  89.4733 15.62437042911051
RESURS-DK 1             
1 29228U 06021A   22242.47523748  .00000481  00000+0  42579-4 0  9997
2 29228  69.9353 300.3522 0007194 292.7467  67.2934 15.03369168893501
GENESIS 1               
1 29252U 06029A   22242.30291415  .00002244  00000+0  10573-3 0  9994
2 29252  64.5214 188.4902 0056609 250.8559 108.6433 15.21154598890201
CZ-4B R/B               
1 29507U 06046C   22242.35872702  .00001151  00000+0  90862-4 0  9991
2 29507  97.7257 272.1404 0044208 343.7153  16.2648 15.01998323865968
CZ-2C R/B               
1 31114U 07010B   22242.49961918 -.00000043  00000+0 -20504-5 0  9991
2 31114  98.2475  50.5153 0060828  82.1881 278.6197 14.19442914797088
COSMO-SKYMED 1          
1 31598U 07023A   22242.32588268 -.00000058  00000+0 -74945-6 0  9991
2 31598  97.8892  64.9281 0001463  91.0965 269.0428 14.82149166823900
GENESIS 2               
1 31789U 07028A   22242.36343111  .00002537  00000+0  12255-3 0  9993
2 31789  64.4947 231.6589 0054043 303.6696  55.9280 15.20023962837138
COSMOS 2428             
1 31792U 07029A   22242.48961738  .00000034  00000+0  44128-4 0  9997
2 31792  70.9548  24.5360 0010413 283.1069  76.8890 14.12596973782300
SL-16 R/B               
1 31793U 07029B   22242.50334126  .00000129  00000+0  92320-4 0  9998
2 31793  70.9790 357.2981 0001973 263.9396 168.8312 14.14484750783421
KORONAS-FOTON           
1 33504U 09003A   22242.18990371  .00001570  00000+0  76397-4 0  9995
2 33504  82.4427 142.3568 0019072  20.3190 339.8797 15.17505129749144
H-2A R/B                
1 38341U 12025E   22242.46937796  .00000499  00000+0  64687-4 0  9998
2 38341  98.4964 102.6325 0054830 167.4089 192.8508 14.84829541556639
CUSAT 2 & FALCON 9 R/B  
1 39271U 13055G   22242.40516557  .00008706  00000+0  18670-3 0  9996
2 39271  80.9558 113.5948 0516837 249.1596 105.3540 14.65543558467591
SHIJIAN-16 (SJ-16)      
1 39358U 13057A   22242.55291097  .00000211  00000+0  27141-4 0  9996
2 39358  74.9740  89.2622 0018317 338.6562  21.3857 14.86260340480005
CZ-2C R/B               
1 39364U 13059B   22242.23032850  .00005423  00000+0  17083-3 0  9993
2 39364  97.1532 293.0803 0043337  69.1751 291.4125 15.32381137491505
SL-4 R/B                
1 39679U 14021B   22242.48770098  .00002267  00000+0  12020-3 0  9991
2 39679  51.6159 331.0991 0163547 215.7322 143.2617 15.09114199460292
ALOS-2                  
1 39766U 14029A   22242.53047927  .00000084  00000+0  18145-4 0  9990
2 39766  97.9228 338.5995 0001560  91.0422 269.0923 14.79472844446580
CZ-2C R/B               
1 40306U 14071B   22242.47443732  .00040782  00000+0  36949-3 0  9996
2 40306  97.4218 220.0414 0012511  97.1669 263.1015 15.67851402438470
SL-27 R/B               
1 40354U 14084B   22242.46705661  .00004859  00000+0  10299-3 0  9999
2 40354  74.7381 161.1448 0034746 300.0403  59.7366 15.44663498432024
YAOGAN-29               
1 41038U 15069A   22242.53748529  .00000112  00000+0  21383-4 0  9996
2 41038  98.0585 243.0826 0000958 130.0794 230.0499 14.80908994365254
ASTRO-H (HITOMI)        
1 41337U 16012A   22242.42213290  .00000795  00000+0  56329-4 0  9992
2 41337  31.0057 310.1371 0012076  99.1862 261.0140 14.99544563358238
HXMT (HUIYAN)           
1 42758U 17034A   22242.54632734  .00001100  00000+0  78324-4 0  9996
2 42758  43.0187 300.7442 0009338  16.5038 122.2557 15.10768881287384
CZ-2C R/B               
1 43521U 18054D   22242.42062016  .00002781  00000+0  14237-3 0  9993
2 43521  35.1521 258.9282 0077796  17.4649 342.8717 15.13676168230895
AEOLUS                  
1 43600U 18066A   22242.47032394  .00074301  00000+0  28994-3 0  9997
2 43600  96.7014 247.0815 0004775  85.4549 274.7270 15.86846150232861
SAOCOM 1A               
1 43641U 18076A   22242.60434548  .00000106  00000+0  19869-4 0  9999
2 43641  97.8894  68.2407 0001453  80.5890 279.5498 14.82160611210710
SAOCOM 1B               
1 46265U 20059A   22242.50048645 -.00001359  00000+0 -16418-3 0  9995
2 46265  97.8886  67.2008 0001424  93.2125 266.9235 14.82144948108093
CSS (TIANHE)            
1 48274U 21035A   22242.41986373  .00009674  00000+0  11152-3 0  9997
2 48274  41.4727 126.7608 0005545 224.1236 306.6598 15.61956968 76377
2022-019U               
1 51842U 22019U   22242.51630934  .00002888  00000+0  11389-3 0  9997
2 51842  97.5555 320.6628 0066193 289.1563 195.9792 15.24421464 28065
SZ-13 MODULE            
1 52260U 21092C   22242.35461830  .00020963  00000+0  16212-3 0  9995
2 52260  41.4795 118.5963 0012756 296.4990  63.4545 15.71271853 21011
CZ-2C R/B               
1 52794U 22058K   22242.36309128  .00002197  00000+0  13181-3 0  9993
2 52794  50.1729 191.2590 0103355  32.3395 328.3838 15.11111885 13463
